{
  "type": "FeatureCollection",
  "features": [
    {
      "type": "Feature",
      "properties": {
        "norad_id": 41948,
        "name": "CARTOSAT-2D",
        "group": "resource",
        "lat": -36.199813330394754,
        "lon": 59.082091875387434,
        "alt_km": 517.8457039080149,
        "timestamp": "2025-12-22T05:49:03.139811+00:00",
        "meta_object_name": "CARTOSAT-2D",
        "meta_object_id": "2017-008A",
        "meta_epoch": "2025-12-21T20:29:39.838848",
        "meta_mean_motion": 15.19335784,
        "meta_eccentricity": 0.0005318,
        "meta_inclination": 97.4376,
        "meta_ra_of_asc_node": 53.2131,
        "meta_arg_of_pericenter": 135.0772,
        "meta_mean_anomaly": 225.0894,
        "meta_ephemeris_type": 0,
        "meta_classification_type": "U",
        "meta_norad_cat_id": 41948,
        "meta_element_set_no": 999,
        "meta_rev_at_epoch": 49065,
        "meta_bstar": 0.00010226,
        "meta_mean_motion_dot": 2.093e-05,
        "meta_mean_motion_ddot": 0,
        "tle_line1": "1 41948U 17008A   25355.85393332  .00002093  00000+0  10226-3 0  9995",
        "tle_line2": "2 41948  97.4376  53.2131 0005318 135.0772 225.0894 15.19335784490651"
      },
      "geometry": {
        "type": "Point",
        "coordinates": [
          59.082091875387434,
          -36.199813330394754
        ]
      }
    },
    {
      "type": "Feature",
      "properties": {
        "norad_id": 42063,
        "name": "SENTINEL-2B",
        "group": "resource",
        "lat": 35.63035241546544,
        "lon": -105.2393140539653,
        "alt_km": 786.0411794375359,
        "timestamp": "2025-12-22T05:49:03.139821+00:00",
        "meta_object_name": "SENTINEL-2B",
        "meta_object_id": "2017-013A",
        "meta_epoch": "2025-12-21T20:45:21.989376",
        "meta_mean_motion": 14.30813544,
        "meta_eccentricity": 0.0001185,
        "meta_inclination": 98.5712,
        "meta_ra_of_asc_node": 68.1829,
        "meta_arg_of_pericenter": 91.4976,
        "meta_mean_anomaly": 268.6343,
        "meta_ephemeris_type": 0,
        "meta_classification_type": "U",
        "meta_norad_cat_id": 42063,
        "meta_element_set_no": 999,
        "meta_rev_at_epoch": 45928,
        "meta_bstar": 9.5418e-06,
        "meta_mean_motion_dot": -1.9e-07,
        "meta_mean_motion_ddot": 0,
        "tle_line1": "1 42063U 17013A   25355.86483784 -.00000019  00000+0  95418-5 0  9997",
        "tle_line2": "2 42063  98.5712  68.1829 0001185  91.4976 268.6343 14.30813544459287"
      },
      "geometry": {
        "type": "Point",
        "coordinates": [
          -105.2393140539653,
          35.63035241546544
        ]
      }
    },
    {
      "type": "Feature",
      "properties": {
        "norad_id": 42767,
        "name": "CARTOSAT-2E",
        "group": "resource",
        "lat": -51.81437115400379,
        "lon": -135.87771597010058,
        "alt_km": 513.6783090192048,
        "timestamp": "2025-12-22T05:49:03.139832+00:00",
        "meta_object_name": "CARTOSAT-2E",
        "meta_object_id": "2017-036C",
        "meta_epoch": "2025-12-21T20:53:39.682752",
        "meta_mean_motion": 15.19277436,
        "meta_eccentricity": 0.0002562,
        "meta_inclination": 97.4544,
        "meta_ra_of_asc_node": 53.3382,
        "meta_arg_of_pericenter": 192.9238,
        "meta_mean_anomaly": 167.1931,
        "meta_ephemeris_type": 0,
        "meta_classification_type": "U",
        "meta_norad_cat_id": 42767,
        "meta_element_set_no": 999,
        "meta_rev_at_epoch": 47122,
        "meta_bstar": 0.00011583,
        "meta_mean_motion_dot": 2.375e-05,
        "meta_mean_motion_ddot": 0,
        "tle_line1": "1 42767U 17036C   25355.87059818  .00002375  00000+0  11583-3 0  9996",
        "tle_line2": "2 42767  97.4544  53.3382 0002562 192.9238 167.1931 15.19277436471223"
      },
      "geometry": {
        "type": "Point",
        "coordinates": [
          -135.87771597010058,
          -51.81437115400379
        ]
      }
    },
    {
      "type": "Feature",
      "properties": {
        "norad_id": 42920,
        "name": "FORMOSAT-5",
        "group": "resource",
        "lat": 68.15123413630903,
        "lon": -88.43147490157837,
        "alt_km": 723.0232134502385,
        "timestamp": "2025-12-22T05:49:03.139842+00:00",
        "meta_object_name": "FORMOSAT-5",
        "meta_object_id": "2017-049A",
        "meta_epoch": "2025-12-21T19:22:43.533120",
        "meta_mean_motion": 14.50765353,
        "meta_eccentricity": 0.0009823,
        "meta_inclination": 98.2442,
        "meta_ra_of_asc_node": 69.9443,
        "meta_arg_of_pericenter": 270.6289,
        "meta_mean_anomaly": 89.378,
        "meta_ephemeris_type": 0,
        "meta_classification_type": "U",
        "meta_norad_cat_id": 42920,
        "meta_element_set_no": 999,
        "meta_rev_at_epoch": 44095,
        "meta_bstar": 5.1873e-05,
        "meta_mean_motion_dot": 1.6e-06,
        "meta_mean_motion_ddot": 0,
        "tle_line1": "1 42920U 17049A   25355.80744830  .00000160  00000+0  51873-4 0  9996",
        "tle_line2": "2 42920  98.2442  69.9443 0009823 270.6289  89.3780 14.50765353440955"
      },
      "geometry": {
        "type": "Point",
        "coordinates": [
          -88.43147490157837,
          68.15123413630903
        ]
      }
    },
    {
      "type": "Feature",
      "properties": {
        "norad_id": 42969,
        "name": "SENTINEL-5P",
        "group": "resource",
        "lat": 23.981494107667306,
        "lon": 118.6848737594633,
        "alt_km": 826.0433822270752,
        "timestamp": "2025-12-22T05:49:03.139853+00:00",
        "meta_object_name": "SENTINEL-5P",
        "meta_object_id": "2017-064A",
        "meta_epoch": "2025-12-21T18:56:13.127712",
        "meta_mean_motion": 14.19519562,
        "meta_eccentricity": 0.0001021,
        "meta_inclination": 98.7799,
        "meta_ra_of_asc_node": 294.2934,
        "meta_arg_of_pericenter": 91.0848,
        "meta_mean_anomaly": 269.0445,
        "meta_ephemeris_type": 0,
        "meta_classification_type": "U",
        "meta_norad_cat_id": 42969,
        "meta_element_set_no": 999,
        "meta_rev_at_epoch": 42439,
        "meta_bstar": 4.8556e-05,
        "meta_mean_motion_dot": 5.8e-07,
        "meta_mean_motion_ddot": 0,
        "tle_line1": "1 42969U 17064A   25355.78904083  .00000058  00000+0  48556-4 0  9991",
        "tle_line2": "2 42969  98.7799 294.2934 0001021  91.0848 269.0445 14.19519562424393"
      },
      "geometry": {
        "type": "Point",
        "coordinates": [
          118.6848737594633,
          23.981494107667306
        ]
      }
    },
    {
      "type": "Feature",
      "properties": {
        "norad_id": 42987,
        "name": "SKYSAT-C11",
        "group": "resource",
        "lat": -34.797837363822204,
        "lon": 139.16486735029443,
        "alt_km": 429.98000892287564,
        "timestamp": "2025-12-22T05:49:03.139863+00:00",
        "meta_object_name": "SKYSAT-C11",
        "meta_object_id": "2017-068A",
        "meta_epoch": "2025-12-21T16:00:16.926048",
        "meta_mean_motion": 15.47797552,
        "meta_eccentricity": 0.0001162,
        "meta_inclination": 97.415,
        "meta_ra_of_asc_node": 133.3819,
        "meta_arg_of_pericenter": 98.8303,
        "meta_mean_anomaly": 261.3078,
        "meta_ephemeris_type": 0,
        "meta_classification_type": "U",
        "meta_norad_cat_id": 42987,
        "meta_element_set_no": 999,
        "meta_rev_at_epoch": 45569,
        "meta_bstar": 0.00037061,
        "meta_mean_motion_dot": 0.0001916,
        "meta_mean_motion_ddot": 0,
        "tle_line1": "1 42987U 17068A   25355.66686257  .00019160  00000+0  37061-3 0  9994",
        "tle_line2": "2 42987  97.4150 133.3819 0001162  98.8303 261.3078 15.47797552455695"
      },
      "geometry": {
        "type": "Point",
        "coordinates": [
          139.16486735029443,
          -34.797837363822204
        ]
      }
    },
    {
      "type": "Feature",
      "properties": {
        "norad_id": 42988,
        "name": "SKYSAT-C10",
        "group": "resource",
        "lat": -56.04032444189335,
        "lon": -64.04713828300066,
        "alt_km": 479.6666807547181,
        "timestamp": "2025-12-22T05:49:03.139874+00:00",
        "meta_object_name": "SKYSAT-C10",
        "meta_object_id": "2017-068B",
        "meta_epoch": "2025-12-21T19:23:01.982976",
        "meta_mean_motion": 15.32239543,
        "meta_eccentricity": 0.0005391,
        "meta_inclination": 97.4267,
        "meta_ra_of_asc_node": 126.6847,
        "meta_arg_of_pericenter": 79.0012,
        "meta_mean_anomaly": 281.1836,
        "meta_ephemeris_type": 0,
        "meta_classification_type": "U",
        "meta_norad_cat_id": 42988,
        "meta_element_set_no": 999,
        "meta_rev_at_epoch": 45518,
        "meta_bstar": 0.00029025,
        "meta_mean_motion_dot": 8.961e-05,
        "meta_mean_motion_ddot": 0,
        "tle_line1": "1 42988U 17068B   25355.80766184  .00008961  00000+0  29025-3 0  9997",
        "tle_line2": "2 42988  97.4267 126.6847 0005391  79.0012 281.1836 15.32239543455188"
      },
      "geometry": {
        "type": "Point",
        "coordinates": [
          -64.04713828300066,
          -56.04032444189335
        ]
      }
    }
  ]
}